*******************************************************************************
JPL/HORIZONS                 65 Cybele (A861 EB)           2020-Jun-20 08:03:49
Rec #:      65 (+COV) Soln.date: 2020-May-20_00:57:44   # obs: 3856 (1861-2020)
 
IAU76/J2000 helio. ecliptic osc. elements (au, days, deg., period=Julian yrs):
 
  EPOCH=  2454077.5 ! 2006-Dec-08.00 (TDB)         Residual RMS= .3136
   EC= .1050216007708969   QR= 3.072661565024804   TP= 2454618.8702885625
   OM= 155.8077991602982   W=  105.7518413063729   IN= 3.548459307104687
   A= 3.433224274095851    MA= 276.1225479594498   ADIST= 3.793786983166897
   PER= 6.36153            N= .154935451           ANGMOM= .03169744
   DAN= 3.495              DDN= 3.30124            L= 261.588392
   B= 3.4150411            MOID= 2.06120992        TP= 2008-Jun-01.3702885625
 
Asteroid physical parameters (km, seconds, rotational period in hours):
   GM= n.a.                RAD= 118.63             ROTPER= 6.0814
   H= 6.8                  G= .010                 B-V= .690
                           ALBEDO= .0706           STYP= Xc
 
ASTEROID comments: 
1: soln ref.= JPL#82, OCC=0
2: source=ORB
*******************************************************************************
 
 
*******************************************************************************
Ephemeris / WWW_USER Sat Jun 20 08:03:49 2020 Pasadena, USA      / Horizons
*******************************************************************************
Target body name: 65 Cybele (A861 EB)             {source: JPL#82}
Center body name: Solar System Barycenter (0)     {source: DE431}
Center-site name: BODY CENTER
*******************************************************************************
Start time      : A.D. 1969-Jun-28 00:00:00.0000 TDB
Stop  time      : A.D. 2071-May-04 00:00:00.0000 TDB
Step-size       : 7200 minutes
*******************************************************************************
Center geodetic : 0.00000000,0.00000000,0.0000000 {E-lon(deg),Lat(deg),Alt(km)}
Center cylindric: 0.00000000,0.00000000,0.0000000 {E-lon(deg),Dxy(km),Dz(km)}
Center radii    : (undefined)                                                  
Small perturbers: Yes                             {source: SB431-N16}
Output units    : AU-D
Output type     : GEOMETRIC cartesian states
Output format   : 2 (position and velocity)
Reference frame : Ecliptic of J2000.0
*******************************************************************************
Initial IAU76/J2000 heliocentric ecliptic osculating elements (au, days, deg.):
  EPOCH=  2454077.5 ! 2006-Dec-08.00 (TDB)         Residual RMS= .3136         
   EC= .1050216007708969   QR= 3.072661565024804   TP= 2454618.8702885625      
   OM= 155.8077991602982   W=  105.7518413063729   IN= 3.548459307104687       
  Equivalent ICRF heliocentric equatorial cartesian coordinates (au, au/d):
   X=-3.324795805333976E+00  Y= 7.678051422716066E-01  Z= 3.724096785781611E-01
  VX=-1.339150374105679E-03 VY=-8.635029629802423E-03 VZ=-3.141172686862894E-03
Asteroid physical parameters (km, seconds, rotational period in hours):        
   GM= n.a.                RAD= 118.63             ROTPER= 6.0814              
   H= 6.8                  G= .010                 B-V= .690                   
                           ALBEDO= .0706           STYP= Xc                    
*******************************************************************************
            JDTDB,            Calendar Date (TDB),        delta-T,                      X,                      Y,                      Z,                     VX,                     VY,                     VZ,
******************************************************************************************************************************************************************************************************************
$$SOE
2442500.500000000, A.D. 1975-Mar-29 00:00:00.0000,      46.185645, -3.402940118771148E+00,  4.767966756738283E-01,  5.790776409004952E-02, -2.526863597346387E-04, -9.268444658870625E-03,  5.316086729156282E-04,
2442505.500000000, A.D. 1975-Apr-03 00:00:00.0000,      46.185654, -3.403892442175929E+00,  4.304122015851641E-01,  6.056043443160272E-02, -1.281439033781122E-04, -9.285074549248715E-03,  5.294416507300661E-04,
2442510.500000000, A.D. 1975-Apr-08 00:00:00.0000,      46.185653, -3.404220582204376E+00,  3.839486492207557E-01,  6.320200201470476E-02, -3.016102496857898E-06, -9.300073018773681E-03,  5.271674795101274E-04,
2442515.500000000, A.D. 1975-Apr-13 00:00:00.0000,      46.185641, -3.403921658930016E+00,  3.374142198680848E-01,  6.583192975782404E-02,  1.226782449018399E-04, -9.313422409077267E-03,  5.247856275410439E-04,
2442520.500000000, A.D. 1975-Apr-18 00:00:00.0000,      46.185616, -3.402992887614690E+00,  2.908172028731795E-01,  6.844967796394577E-02,  2.489198604899181E-04, -9.325105157024574E-03,  5.222955804758337E-04,
2442525.500000000, A.D. 1975-Apr-23 00:00:00.0000,      46.185577, -3.401431581125173E+00,  2.441659751354406E-01,  7.105470440940143E-02,  3.756889796409894E-04, -9.335103806372834E-03,  5.196968421348373E-04,
2442530.500000000, A.D. 1975-Apr-28 00:00:00.0000,      46.185526, -3.399235152379215E+00,  1.974690005433014E-01,  7.364646443674036E-02,  5.029653456399628E-04, -9.343401019786098E-03,  5.169889353218766E-04,
2442535.500000000, A.D. 1975-May-03 00:00:00.0000,      46.185465, -3.396401116820174E+00,  1.507348293488585E-01,  7.622441105170806E-02,  6.307282040157032E-04, -9.349979591232460E-03,  5.141714026494557E-04,
2442540.500000000, A.D. 1975-May-08 00:00:00.0000,      46.185395, -3.392927094919955E+00,  1.039720974796896E-01,  7.878799502436827E-02,  7.589562968844610E-04, -9.354822458679813E-03,  5.112438073734555E-04,
2442545.500000000, A.D. 1975-May-13 00:00:00.0000,      46.185315, -3.388810814709951E+00,  5.718952578682705E-02,  8.133666499445982E-02,  8.876278574489822E-04, -9.357912716925451E-03,  5.082057342545895E-04,
2442550.500000000, A.D. 1975-May-18 00:00:00.0000,      46.185226, -3.384050114338248E+00,  1.039591922828886E-02,  8.386986758115915E-02,  1.016720605073032E-03, -9.359233630560730E-03,  5.050567904605182E-04,
2442555.500000000, A.D. 1975-May-23 00:00:00.0000,      46.185126, -3.378642944649604E+00, -3.639983401302157E-02,  8.638704749742815E-02,  1.146211741077004E-03, -9.358768647305823E-03,  5.017966064932130E-04,
2442560.500000000, A.D. 1975-May-28 00:00:00.0000,      46.185017, -3.372587371784927E+00, -8.318876347944279E-02,  8.888764766901600E-02,  1.276077945112458E-03, -9.356501411902913E-03,  4.984248371205270E-04,
2442565.500000000, A.D. 1975-Jun-02 00:00:00.0000,      46.184902, -3.365881579797901E+00, -1.299618174596300E-01,  9.137110935810912E-02,  1.406295371896010E-03, -9.352415780596150E-03,  4.949411623039395E-04,
2442570.500000000, A.D. 1975-Jun-07 00:00:00.0000,      46.184782, -3.358523873287297E+00, -1.767098640833839E-01,  9.383687229161772E-02,  1.536839648189458E-03, -9.346495836141883E-03,  4.913452881265782E-04,
2442575.500000000, A.D. 1975-Jun-12 00:00:00.0000,      46.184657, -3.350512680043856E+00, -2.234236924927244E-01,  9.628437479411614E-02,  1.667685869993296E-03, -9.338725903287571E-03,  4.876369477272867E-04,
2442580.500000000, A.D. 1975-Jun-17 00:00:00.0000,      46.184527, -3.341846553710677E+00, -2.700940140914146E-01,  9.871305392547590E-02,  1.798808599950186E-03, -9.329090564662842E-03,  4.838159022442974E-04,
2442585.500000000, A.D. 1975-Jun-22 00:00:00.0000,      46.184391, -3.332524176456019E+00, -3.167114638748570E-01,  1.011223456232447E-01,  1.930181864979366E-03, -9.317574677029176E-03,  4.798819417699494E-04,
2442590.500000000, A.D. 1975-Jun-27 00:00:00.0000,      46.184252, -3.322544361657270E+00, -3.632666018420302E-01,  1.035116848498289E-01,  2.061779154189572E-03, -9.304163387839671E-03,  4.758348863176498E-04,
2442595.500000000, A.D. 1975-Jul-02 00:00:00.0000,      46.184112, -3.311906056594510E+00, -4.097499144909336E-01,  1.058805057445431E-01,  2.193573417136217E-03, -9.288842152078119E-03,  4.716745868015161E-04,
2442600.500000000, A.D. 1975-Jul-07 00:00:00.0000,      46.183973, -3.300608345151788E+00, -4.561518163988912E-01,  1.082282417805886E-01,  2.325537062494956E-03, -9.271596749363476E-03,  4.674009260286269E-04,
2442605.500000000, A.D. 1975-Jul-12 00:00:00.0000,      46.183835, -3.288650450523836E+00, -5.024626518890397E-01,  1.105543259270242E-01,  2.457641957219097E-03, -9.252413301318523E-03,  4.630138197030163E-04,
2442610.500000000, A.D. 1975-Jul-17 00:00:00.0000,      46.183696, -3.276031737925657E+00, -5.486726967843205E-01,  1.128581908157822E-01,  2.589859426248349E-03, -9.231278289203580E-03,  4.585132174398192E-04,
2442615.500000000, A.D. 1975-Jul-22 00:00:00.0000,      46.183559, -3.262751717302036E+00, -5.947721602503240E-01,  1.151392689137733E-01,  2.722160252841985E-03, -9.208178571828774E-03,  4.538991037855370E-04,
2442620.500000000, A.D. 1975-Jul-27 00:00:00.0000,      46.183424, -3.248810046033715E+00, -6.407511867284922E-01,  1.173969927000920E-01,  2.854514679576794E-03, -9.183101403797647E-03,  4.491714992358426E-04,
2442625.500000000, A.D. 1975-Aug-01 00:00:00.0000,      46.183294, -3.234206531637106E+00, -6.865998579615452E-01,  1.196307948482847E-01,  2.986892409900064E-03, -9.156034454163655E-03,  4.443304612431056E-04,
2442630.500000000, A.D. 1975-Aug-06 00:00:00.0000,      46.183171, -3.218941134455276E+00, -7.323081951131729E-01,  1.218401084136459E-01,  3.119262610053497E-03, -9.126965825448334E-03,  4.393760852232385E-04,
2442635.500000000, A.D. 1975-Aug-11 00:00:00.0000,      46.183054, -3.203013970338326E+00, -7.778661609833292E-01,  1.240243670255850E-01,  3.251593911424726E-03, -9.095884072843792E-03,  4.343085055784538E-04,
